SKYKRAFT-1A             
1 55054U 23001AX  26068.71064616  .00008177  00000+0  30069-3 0  9991
2 55054  97.3349 127.6290 0011277 121.5092 238.7251 15.28083228176529
STARLINK-31621          
1 59465U 24068L   26068.24638670 -.00002550  00000+0 -83213-4 0  9991
2 59465  43.0064  37.1437 0001369 259.3328 100.7369 15.27567599108454
